[{"OBJECT_NAME":"NUSAT-44 (MARIA MITCHELL)","OBJECT_ID":"2024-043AA","EPOCH":"2026-03-09T22:12:18.524160","MEAN_MOTION":15.29764305,"ECCENTRICITY":0.0007331,"INCLINATION":97.5299,"RA_OF_ASC_NODE":207.7691,"ARG_OF_PERICENTER":214.9017,"MEAN_ANOMALY":145.1743,"EPHEMERIS_TYPE":0,"CLASSIFICATION_TYPE":"U","NORAD_CAT_ID":59122,"ELEMENT_SET_NO":999,"REV_AT_EPOCH":11209,"BSTAR":0.00061063193,"MEAN_MOTION_DOT":0.00017562,"MEAN_MOTION_DDOT":0},{"OBJECT_NAME":"STARLINK-34626","OBJECT_ID":"2025-167E","EPOCH":"2026-03-09T22:48:23.488704","MEAN_MOTION":15.30163254,"ECCENTRICITY":0.00014881,"INCLINATION":53.1604,"RA_OF_ASC_NODE":25.2534,"ARG_OF_PERICENTER":79.2368,"MEAN_ANOMALY":280.88,"EPHEMERIS_TYPE":0,"CLASSIFICATION_TYPE":"U","NORAD_CAT_ID":65082,"ELEMENT_SET_NO":999,"REV_AT_EPOCH":3352,"BSTAR":0.00094352376,"MEAN_MOTION_DOT":0.00027658,"MEAN_MOTION_DDOT":0}]
